start=new Date('2022-11-23T00:00:00.000Z').valueOf();
sats=[{"RCS_SIZE":"LARGE","MEAN_MOTION":"15.06399978","EPOCH":"2022-11-22T21:04:10.913376","CENTER_NAME":"EARTH","MEAN_ANOMALY":"306.4951","PERIOD":"95.592","MEAN_MOTION_DDOT":"0.0000000000000","BSTAR":"0.00013071000000","INCLINATION":"53.0549","REV_AT_EPOCH":"16717","DECAY_DATE":null,"PERIAPSIS":"545.905","SEMIMAJOR_AXIS":"6925.349","TLE_LINE1":"1 44735U 19074Y   22326.87790409  .00001666  00000-0  13071-3 0  9997","OBJECT_NAME":"STARLINK-1030","LAUNCH_DATE":"2019-11-11","COUNTRY_CODE":"US","FILE":"3667517","SITE":"AFETR","CLASSIFICATION_TYPE":"U","REF_FRAME":"TEME","RA_OF_ASC_NODE":"206.2640","NORAD_CAT_ID":"44735","APOAPSIS":"548.522","ELEMENT_SET_NO":"999","GP_ID":"218500979","OBJECT_TYPE":"PAYLOAD","ECCENTRICITY":"0.00018890","MEAN_ELEMENT_THEORY":"SGP4","TIME_SYSTEM":"UTC","MEAN_MOTION_DOT":"0.00001666","EPHEMERIS_TYPE":"0","TLE_LINE2":"2 44735  53.0549 206.2640 0001889  53.6212 306.4951 15.06399978167173","OBJECT_ID":"2019-074Y","ARG_OF_PERICENTER":"53.6212"},{"TLE_LINE2":"2 44736  53.0536 206.4931 0001738  77.0829 283.0354 15.06380663167170","OBJECT_ID":"2019-074Z","EPHEMERIS_TYPE":"0","ARG_OF_PERICENTER":"77.0829","TIME_SYSTEM":"UTC","ECCENTRICITY":"0.00017380","MEAN_ELEMENT_THEORY":"SGP4","MEAN_MOTION_DOT":"0.00000100","NORAD_CAT_ID":"44736","RA_OF_ASC_NODE":"206.4931","ELEMENT_SET_NO":"999","GP_ID":"218499728","OBJECT_TYPE":"PAYLOAD","APOAPSIS":"548.476","REF_FRAME":"TEME","FILE":"3667517","CLASSIFICATION_TYPE":"U","SITE":"AFETR","TLE_LINE1":"1 44736U 19074Z   22326.82631682  .00000100  00000-0  25634-4 0  9991","OBJECT_NAME":"STARLINK-1031","LAUNCH_DATE":"2019-11-11","COUNTRY_CODE":"US","REV_AT_EPOCH":"16717","MEAN_MOTION_DDOT":"0.0000000000000","BSTAR":"0.00002563400000","INCLINATION":"53.0536","CENTER_NAME":"EARTH","PERIOD":"95.593","MEAN_ANOMALY":"283.0354","PERIAPSIS":"546.069","SEMIMAJOR_AXIS":"6925.408","DECAY_DATE":null,"RCS_SIZE":"LARGE","MEAN_MOTION":"15.06380663","EPOCH":"2022-11-22T19:49:53.773248"},{"PERIAPSIS":"546.064","SEMIMAJOR_AXIS":"6925.345","DECAY_DATE":null,"REV_AT_EPOCH":"16717","MEAN_MOTION_DDOT":"0.0000000000000","BSTAR":"0.00002346200000","INCLINATION":"53.0537","CENTER_NAME":"EARTH","MEAN_ANOMALY":"297.8626","PERIOD":"95.592","COUNTRY_CODE":"US","TLE_LINE1":"1 44737U 19074AA  22326.83735686  .00000068  00000-0  23462-4 0  9992","LAUNCH_DATE":"2019-11-11","OBJECT_NAME":"STARLINK-1032","EPOCH":"2022-11-22T20:05:47.632704","MEAN_MOTION":"15.06401034","RCS_SIZE":"LARGE","MEAN_MOTION_DOT":"0.00000068","TIME_SYSTEM":"UTC","MEAN_ELEMENT_THEORY":"SGP4","ECCENTRICITY":"0.00016560","ARG_OF_PERICENTER":"62.2531","TLE_LINE2":"2 44737  53.0537 206.4361 0001656  62.2531 297.8626 15.06401034167175","OBJECT_ID":"2019-074AA","EPHEMERIS_TYPE":"0","REF_FRAME":"TEME","FILE":"3667517","SITE":"AFETR","CLASSIFICATION_TYPE":"U","GP_ID":"218499977","ELEMENT_SET_NO":"999","OBJECT_TYPE":"PAYLOAD","APOAPSIS":"548.357","NORAD_CAT_ID":"44737","RA_OF_ASC_NODE":"206.4361"},{"TLE_LINE2":"2 44738  53.0530 206.5093 0001987  55.7389 304.3787 15.06397040167169","OBJECT_ID":"2019-074AB","EPHEMERIS_TYPE":"0","ARG_OF_PERICENTER":"55.7389","TIME_SYSTEM":"UTC","MEAN_ELEMENT_THEORY":"SGP4","ECCENTRICITY":"0.00019870","MEAN_MOTION_DOT":"0.00000609","NORAD_CAT_ID":"44738","RA_OF_ASC_NODE":"206.5093","ELEMENT_SET_NO":"999","GP_ID":"218500729","OBJECT_TYPE":"PAYLOAD","APOAPSIS":"548.599","REF_FRAME":"TEME","FILE":"3667517","CLASSIFICATION_TYPE":"U","SITE":"AFETR","TLE_LINE1":"1 44738U 19074AB  22326.82261663  .00000609  00000-0  59811-4 0  9999","LAUNCH_DATE":"2019-11-11","OBJECT_NAME":"STARLINK-1033","COUNTRY_CODE":"US","MEAN_MOTION_DDOT":"0.0000000000000","INCLINATION":"53.0530","BSTAR":"0.00005981100000","REV_AT_EPOCH":"16716","CENTER_NAME":"EARTH","PERIOD":"95.592","MEAN_ANOMALY":"304.3787","PERIAPSIS":"545.847","SEMIMAJOR_AXIS":"6925.358","DECAY_DATE":null,"RCS_SIZE":"LARGE","MEAN_MOTION":"15.06397040","EPOCH":"2022-11-22T19:44:34.076832"},{"MEAN_MOTION_DOT":"0.00006776","ECCENTRICITY":"0.00045530","MEAN_ELEMENT_THEORY":"SGP4","TIME_SYSTEM":"UTC","ARG_OF_PERICENTER":"154.4132","EPHEMERIS_TYPE":"0","TLE_LINE2":"2 44739  52.9813 182.3634 0004553 154.4132 205.7089 15.22416717167451","OBJECT_ID":"2019-074AC","FILE":"3667517","CLASSIFICATION_TYPE":"U","SITE":"AFETR","REF_FRAME":"TEME","APOAPSIS":"501.686","GP_ID":"218501479","ELEMENT_SET_NO":"999","OBJECT_TYPE":"PAYLOAD","RA_OF_ASC_NODE":"182.3634","NORAD_CAT_ID":"44739","DECAY_DATE":null,"PERIAPSIS":"495.425","SEMIMAJOR_AXIS":"6876.691","CENTER_NAME":"EARTH","MEAN_ANOMALY":"205.7089","PERIOD":"94.586","INCLINATION":"52.9813","MEAN_MOTION_DDOT":"0.0000000000000","BSTAR":"0.00030329000000","REV_AT_EPOCH":"16745","COUNTRY_CODE":"US","TLE_LINE1":"1 44739U 19074AC  22326.85560206  .00006776  00000-0  30329-3 0  9991","LAUNCH_DATE":"2019-11-11","OBJECT_NAME":"STARLINK-1034","EPOCH":"2022-11-22T20:32:04.017984","RCS_SIZE":"LARGE","MEAN_MOTION":"15.22416717"},{"MEAN_MOTION_DOT":"0.00001392","TIME_SYSTEM":"UTC","ECCENTRICITY":"0.00017400","MEAN_ELEMENT_THEORY":"SGP4","ARG_OF_PERICENTER":"58.8826","OBJECT_ID":"2019-074AD","TLE_LINE2":"2 44740  53.0543 206.4552 0001740  58.8826 301.2334 15.06393962167176","EPHEMERIS_TYPE":"0","REF_FRAME":"TEME","CLASSIFICATION_TYPE":"U","SITE":"AFETR","FILE":"3667517","OBJECT_TYPE":"PAYLOAD","ELEMENT_SET_NO":"999","GP_ID":"218500227","APOAPSIS":"548.437","NORAD_CAT_ID":"44740","RA_OF_ASC_NODE":"206.4552","SEMIMAJOR_AXIS":"6925.367","PERIAPSIS":"546.027","DECAY_DATE":null,"REV_AT_EPOCH":"16717","MEAN_MOTION_DDOT":"0.0000000000000","BSTAR":"0.00011238000000","INCLINATION":"53.0543","MEAN_ANOMALY":"301.2334","PERIOD":"95.593","CENTER_NAME":"EARTH","COUNTRY_CODE":"US","LAUNCH_DATE":"2019-11-11","OBJECT_NAME":"STARLINK-1035","TLE_LINE1":"1 44740U 19074AD  22326.83367496  .00001392  00000-0  11238-3 0  9994","EPOCH":"2022-11-22T20:00:29.516544","MEAN_MOTION":"15.06393962","RCS_SIZE":"LARGE"},{"FILE":"3667517","CLASSIFICATION_TYPE":"U","SITE":"AFETR","REF_FRAME":"TEME","APOAPSIS":"548.530","ELEMENT_SET_NO":"999","GP_ID":"218500477","OBJECT_TYPE":"PAYLOAD","RA_OF_ASC_NODE":"206.4001","NORAD_CAT_ID":"44741","MEAN_MOTION_DOT":"0.00001371","ECCENTRICITY":"0.00019330","MEAN_ELEMENT_THEORY":"SGP4","TIME_SYSTEM":"UTC","ARG_OF_PERICENTER":"55.2129","EPHEMERIS_TYPE":"0","TLE_LINE2":"2 44741  53.0538 206.4001 0001933  55.2129 304.9042 15.06407294167171","OBJECT_ID":"2019-074AE","EPOCH":"2022-11-22T20:16:23.615328","RCS_SIZE":"LARGE","MEAN_MOTION":"15.06407294","DECAY_DATE":null,"PERIAPSIS":"545.853","SEMIMAJOR_AXIS":"6925.326","CENTER_NAME":"EARTH","PERIOD":"95.592","MEAN_ANOMALY":"304.9042","MEAN_MOTION_DDOT":"0.0000000000000","BSTAR":"0.00011091000000","REV_AT_EPOCH":"16717","INCLINATION":"53.0538","COUNTRY_CODE":"US","TLE_LINE1":"1 44741U 19074AE  22326.84471777  .00001371  00000-0  11091-3 0  9998","OBJECT_NAME":"STARLINK-1036","LAUNCH_DATE":"2019-11-11"},{"RCS_SIZE":"LARGE","MEAN_MOTION":"15.24687837","EPOCH":"2022-11-22T20:59:27.084192","OBJECT_NAME":"STARLINK-1037","LAUNCH_DATE":"2019-11-11","TLE_LINE1":"1 44742U 19074AF  22326.87461903  .00017583  00000-0  71366-3 0  9995","COUNTRY_CODE":"US","MEAN_MOTION_DDOT":"0.0000000000000","BSTAR":"0.00071366000000","REV_AT_EPOCH":"16756","INCLINATION":"52.9703","MEAN_ANOMALY":"185.7444","PERIOD":"94.446","CENTER_NAME":"EARTH","SEMIMAJOR_AXIS":"6869.860","PERIAPSIS":"488.083","DECAY_DATE":null,"NORAD_CAT_ID":"44742","RA_OF_ASC_NODE":"174.9476","OBJECT_TYPE":"PAYLOAD","GP_ID":"218501229","ELEMENT_SET_NO":"999","APOAPSIS":"495.367","REF_FRAME":"TEME","CLASSIFICATION_TYPE":"U","SITE":"AFETR","FILE":"3667517","OBJECT_ID":"2019-074AF","TLE_LINE2":"2 44742  52.9703 174.9476 0005301 174.3612 185.7444 15.24687837167569","EPHEMERIS_TYPE":"0","ARG_OF_PERICENTER":"174.3612","TIME_SYSTEM":"UTC","ECCENTRICITY":"0.00053010","MEAN_ELEMENT_THEORY":"SGP4","MEAN_MOTION_DOT":"0.00017583"},{"PERIAPSIS":"546.031","SEMIMAJOR_AXIS":"6925.341","DECAY_DATE":null,"BSTAR":"0.00006010500000","MEAN_MOTION_DDOT":"0.0000000000000","REV_AT_EPOCH":"16700","INCLINATION":"53.0545","CENTER_NAME":"EARTH","MEAN_ANOMALY":"297.4024","PERIOD":"95.592","COUNTRY_CODE":"US","TLE_LINE1":"1 44743U 19074AG  22326.43006284  .00000614  00000-0  60105-4 0  9992","LAUNCH_DATE":"2019-11-11","OBJECT_NAME":"STARLINK-1038","EPOCH":"2022-11-22T10:19:17.429376","MEAN_MOTION":"15.06402524","RCS_SIZE":"LARGE","MEAN_MOTION_DOT":"0.00000614","TIME_SYSTEM":"UTC","ECCENTRICITY":"0.00016970","MEAN_ELEMENT_THEORY":"SGP4","ARG_OF_PERICENTER":"62.7138","TLE_LINE2":"2 44743  53.0545 228.2677 0001697  62.7138 297.4024 15.06402524167001","OBJECT_ID":"2019-074AG","EPHEMERIS_TYPE":"0","REF_FRAME":"TEME","FILE":"3667373","SITE":"AFETR","CLASSIFICATION_TYPE":"U","GP_ID":"218477981","ELEMENT_SET_NO":"999","OBJECT_TYPE":"PAYLOAD","APOAPSIS":"548.381","NORAD_CAT_ID":"44743","RA_OF_ASC_NODE":"228.2677"},{"APOAPSIS":"548.375","OBJECT_TYPE":"PAYLOAD","ELEMENT_SET_NO":"999","GP_ID":"218468104","RA_OF_ASC_NODE":"228.2227","NORAD_CAT_ID":"44744","CLASSIFICATION_TYPE":"U","SITE":"AFETR","FILE":"3667274","REF_FRAME":"TEME","ARG_OF_PERICENTER":"62.8184","EPHEMERIS_TYPE":"0","OBJECT_ID":"2019-074AH","TLE_LINE2":"2 44744  53.0543 228.2227 0001670  62.8184 297.2975 15.06398334166830","MEAN_MOTION_DOT":"0.00000778","MEAN_ELEMENT_THEORY":"SGP4","ECCENTRICITY":"0.00016700","TIME_SYSTEM":"UTC","EPOCH":"2022-11-22T10:35:12.822432","RCS_SIZE":"LARGE","MEAN_MOTION":"15.06398334","COUNTRY_CODE":"US","OBJECT_NAME":"STARLINK-1039","LAUNCH_DATE":"2019-11-11","TLE_LINE1":"1 44744U 19074AH  22326.44112063  .00000778  00000-0  71136-4 0  9994","DECAY_DATE":null,"SEMIMAJOR_AXIS":"6925.354","PERIAPSIS":"546.062","MEAN_ANOMALY":"297.2975","PERIOD":"95.592","CENTER_NAME":"EARTH","MEAN_MOTION_DDOT":"0.0000000000000","BSTAR":"0.00007113600000","REV_AT_EPOCH":"16683","INCLINATION":"53.0543"}];
